SZ-21 MODULE            
1 66515U 25246C   25325.94826458  .00025972  00000+0  30214-3 0  9992
2 66515  41.4747 142.7430 0004546 115.8358 244.2950 15.61102603  1195
